[{"OBJECT_NAME":"FLOCK 4BE-27","OBJECT_ID":"2024-149AX","EPOCH":"2026-03-09T18:04:53.053248","MEAN_MOTION":15.32593322,"ECCENTRICITY":0.00027324,"INCLINATION":97.3862,"RA_OF_ASC_NODE":150.6783,"ARG_OF_PERICENTER":305.898,"MEAN_ANOMALY":54.2008,"EPHEMERIS_TYPE":0,"CLASSIFICATION_TYPE":"U","NORAD_CAT_ID":60513,"ELEMENT_SET_NO":999,"REV_AT_EPOCH":8690,"BSTAR":0.00036576028,"MEAN_MOTION_DOT":0.00011439,"MEAN_MOTION_DDOT":0},{"OBJECT_NAME":"STARLINK-34413","OBJECT_ID":"2025-137Y","EPOCH":"2026-03-09T23:17:06.295200","MEAN_MOTION":15.30212684,"ECCENTRICITY":0.00012505,"INCLINATION":53.1569,"RA_OF_ASC_NODE":334.2311,"ARG_OF_PERICENTER":126.908,"MEAN_ANOMALY":233.2035,"EPHEMERIS_TYPE":0,"CLASSIFICATION_TYPE":"U","NORAD_CAT_ID":64616,"ELEMENT_SET_NO":999,"REV_AT_EPOCH":4087,"BSTAR":0.00097160089,"MEAN_MOTION_DOT":0.00028539,"MEAN_MOTION_DDOT":0}]
